{"type": "FeatureCollection", "features": [ {"type": "Feature", "properties": {"norad_id": 39122, "name": "EUTELSAT 117 WEST A", "group": "eutelsat", "lat": 0.018414386775468843, "lon": 116.4378984519421, "alt_km": 35796.25536886858, "timestamp": "2025-12-20T09:36:01.303254+00:00", "meta": {"OBJECT_NAME": "EUTELSAT 117 WEST A", "OBJECT_ID": "2013-012A", "EPOCH": "2025-12-19T12:21:38.812320", "MEAN_MOTION": 1.00274631, "ECCENTRICITY": 0.0002807, "INCLINATION": 0.032, "RA_OF_ASC_NODE": 299.7491, "ARG_OF_PERICENTER": 334.4616, "MEAN_ANOMALY": 242.7738, "EPHEMERIS_TYPE": 0, "CLASSIFICATION_TYPE": "U", "NORAD_CAT_ID": 39122, "ELEMENT_SET_NO": 999, "REV_AT_EPOCH": 4663, "BSTAR": 0, "MEAN_MOTION_DOT": 1.1e-07, "MEAN_MOTION_DDOT": 0}, "tle": {"line1": "1 39122U 13012A   25353.51503255  .00000011  00000+0  00000+0 0  9998", "line2": "2 39122   0.0320 299.7491 0002807 334.4616 242.7738  1.00274631 46635"}}, "geometry": {"type": "Point", "coordinates": [116.4378984519421, 0.018414386775468843]}}, {"type": "Feature", "properties": {"norad_id": 39163, "name": "EUTELSAT 7B", "group": "eutelsat", "lat": -0.08207415993314125, "lon": -119.82141809153875, "alt_km": 35783.753796664314, "timestamp": "2025-12-20T09:36:01.303267+00:00", "meta": {"OBJECT_NAME": "EUTELSAT 7B", "OBJECT_ID": "2013-022A", "EPOCH": "2025-12-20T02:43:38.882208", "MEAN_MOTION": 1.00270607, "ECCENTRICITY": 0.0004339, "INCLINATION": 0.065, "RA_OF_ASC_NODE": 358.4765, "ARG_OF_PERICENTER": 323.6607, "MEAN_ANOMALY": 174.726, "EPHEMERIS_TYPE": 0, "CLASSIFICATION_TYPE": "U", "NORAD_CAT_ID": 39163, "ELEMENT_SET_NO": 999, "REV_AT_EPOCH": 4615, "BSTAR": 0, "MEAN_MOTION_DOT": 7.2e-07, "MEAN_MOTION_DDOT": 0}, "tle": {"line1": "1 39163U 13022A   25354.11364447  .00000072  00000+0  00000+0 0  9996", "line2": "2 39163   0.0650 358.4765 0004339 323.6607 174.7260  1.00270607 46155"}}, "geometry": {"type": "Point", "coordinates": [-119.82141809153875, -0.08207415993314125]}}, {"type": "Feature", "properties": {"norad_id": 39612, "name": "EXPRESS-AT1", "group": "eutelsat", "lat": -0.04702782877638446, "lon": -70.78927237943884, "alt_km": 35788.34401943922, "timestamp": "2025-12-20T09:36:01.303279+00:00", "meta": {"OBJECT_NAME": "EXPRESS-AT1", "OBJECT_ID": "2014-010A", "EPOCH": "2025-12-19T13:31:46.041312", "MEAN_MOTION": 1.00270605, "ECCENTRICITY": 4.94e-05, "INCLINATION": 0.022, "RA_OF_ASC_NODE": 3.3546, "ARG_OF_PERICENTER": 88.7338, "MEAN_ANOMALY": 255.2488, "EPHEMERIS_TYPE": 0, "CLASSIFICATION_TYPE": "U", "NORAD_CAT_ID": 39612, "ELEMENT_SET_NO": 999, "REV_AT_EPOCH": 4301, "BSTAR": 0, "MEAN_MOTION_DOT": 0, "MEAN_MOTION_DDOT": 0}, "tle": {"line1": "1 39612U 14010A   25353.56372733  .00000000  00000+0  00000+0 0  9999", "line2": "2 39612   0.0220   3.3546 0000494  88.7338 255.2488  1.00270605 43015"}}, "geometry": {"type": "Point", "coordinates": [-70.78927237943884, -0.04702782877638446]}}, {"type": "Feature", "properties": {"norad_id": 39613, "name": "EXPRESS-AT2", "group": "eutelsat", "lat": 0.024390292703430298, "lon": 13.097908149926706, "alt_km": 35785.667763191486, "timestamp": "2025-12-20T09:36:01.303291+00:00", "meta": {"OBJECT_NAME": "EXPRESS-AT2", "OBJECT_ID": "2014-010B", "EPOCH": "2025-12-20T03:37:11.337888", "MEAN_MOTION": 1.00271425, "ECCENTRICITY": 0.000102, "INCLINATION": 0.0174, "RA_OF_ASC_NODE": 322.4069, "ARG_OF_PERICENTER": 328.113, "MEAN_ANOMALY": 352.6228, "EPHEMERIS_TYPE": 0, "CLASSIFICATION_TYPE": "U", "NORAD_CAT_ID": 39613, "ELEMENT_SET_NO": 999, "REV_AT_EPOCH": 4270, "BSTAR": 0, "MEAN_MOTION_DOT": -2.57e-06, "MEAN_MOTION_DDOT": 0}, "tle": {"line1": "1 39613U 14010B   25354.15082567 -.00000257  00000+0  00000+0 0  9994", "line2": "2 39613   0.0174 322.4069 0001020 328.1130 352.6228  1.00271425 42706"}}, "geometry": {"type": "Point", "coordinates": [13.097908149926706, 0.024390292703430298]}}, {"type": "Feature", "properties": {"norad_id": 39773, "name": "EUTELSAT 3B", "group": "eutelsat", "lat": -0.07044437630478448, "lon": -123.67343252371143, "alt_km": 35768.29274122462, "timestamp": "2025-12-20T09:36:01.303302+00:00", "meta": {"OBJECT_NAME": "EUTELSAT 3B", "OBJECT_ID": "2014-030A", "EPOCH": "2025-12-20T02:58:22.553760", "MEAN_MOTION": 1.00272501, "ECCENTRICITY": 0.0004169, "INCLINATION": 0.0607, "RA_OF_ASC_NODE": 5.5727, "ARG_OF_PERICENTER": 227.188, "MEAN_ANOMALY": 263.8885, "EPHEMERIS_TYPE": 0, "CLASSIFICATION_TYPE": "U", "NORAD_CAT_ID": 39773, "ELEMENT_SET_NO": 999, "REV_AT_EPOCH": 4227, "BSTAR": 0, "MEAN_MOTION_DOT": 4.4e-07, "MEAN_MOTION_DDOT": 0}, "tle": {"line1": "1 39773U 14030A   25354.12387215  .00000044  00000+0  00000+0 0  9991", "line2": "2 39773   0.0607   5.5727 0004169 227.1880 263.8885  1.00272501 42271"}}, "geometry": {"type": "Point", "coordinates": [-123.67343252371143, -0.07044437630478448]}}, {"type": "Feature", "properties": {"norad_id": 40425, "name": "EUTELSAT 115 WEST B", "group": "eutelsat", "lat": -0.012205479519006104, "lon": 118.33845758309506, "alt_km": 35787.44783351104, "timestamp": "2025-12-20T09:36:01.303314+00:00", "meta": {"OBJECT_NAME": "EUTELSAT 115 WEST B", "OBJECT_ID": "2015-010B", "EPOCH": "2025-12-20T04:37:38.708832", "MEAN_MOTION": 1.00271744, "ECCENTRICITY": 3.75e-05, "INCLINATION": 0.0106, "RA_OF_ASC_NODE": 158.3005, "ARG_OF_PERICENTER": 170.8788, "MEAN_ANOMALY": 74.3684, "EPHEMERIS_TYPE": 0, "CLASSIFICATION_TYPE": "U", "NORAD_CAT_ID": 40425, "ELEMENT_SET_NO": 999, "REV_AT_EPOCH": 3959, "BSTAR": 0, "MEAN_MOTION_DOT": -1e-08, "MEAN_MOTION_DDOT": 0}, "tle": {"line1": "1 40425U 15010B   25354.19280913 -.00000001  00000+0  00000+0 0  9994", "line2": "2 40425   0.0106 158.3005 0000375 170.8788  74.3684  1.00271744 39594"}}, "geometry": {"type": "Point", "coordinates": [118.33845758309506, -0.012205479519006104]}}, {"type": "Feature", "properties": {"norad_id": 40875, "name": "EUTELSAT 8 WEST B", "group": "eutelsat", "lat": -0.06784933250686298, "lon": -134.79873027594812, "alt_km": 35773.38957212241, "timestamp": "2025-12-20T09:36:01.303326+00:00", "meta": {"OBJECT_NAME": "EUTELSAT 8 WEST B", "OBJECT_ID": "2015-039B", "EPOCH": "2025-12-20T03:56:38.499936", "MEAN_MOTION": 1.00271058, "ECCENTRICITY": 0.0004276, "INCLINATION": 0.0633, "RA_OF_ASC_NODE": 357.3872, "ARG_OF_PERICENTER": 272.4558, "MEAN_ANOMALY": 230.3262, "EPHEMERIS_TYPE": 0, "CLASSIFICATION_TYPE": "U", "NORAD_CAT_ID": 40875, "ELEMENT_SET_NO": 999, "REV_AT_EPOCH": 3786, "BSTAR": 0, "MEAN_MOTION_DOT": -4.2e-07, "MEAN_MOTION_DDOT": 0}, "tle": {"line1": "1 40875U 15039B   25354.16433449 -.00000042  00000+0  00000+0 0  9990", "line2": "2 40875   0.0633 357.3872 0004276 272.4558 230.3262  1.00271058 37861"}}, "geometry": {"type": "Point", "coordinates": [-134.79873027594812, -0.06784933250686298]}}, {"type": "Feature", "properties": {"norad_id": 41310, "name": "EUTELSAT 9B", "group": "eutelsat", "lat": -0.012332529625393718, "lon": -117.80376121282653, "alt_km": 35769.93624718263, "timestamp": "2025-12-20T09:36:01.303355+00:00", "meta": {"OBJECT_NAME": "EUTELSAT 9B", "OBJECT_ID": "2016-005A", "EPOCH": "2025-12-20T03:00:07.388064", "MEAN_MOTION": 1.00272576, "ECCENTRICITY": 0.0004466, "INCLINATION": 0.0617, "RA_OF_ASC_NODE": 71.3898, "ARG_OF_PERICENTER": 203.7211, "MEAN_ANOMALY": 227.8764, "EPHEMERIS_TYPE": 0, "CLASSIFICATION_TYPE": "U", "NORAD_CAT_ID": 41310, "ELEMENT_SET_NO": 999, "REV_AT_EPOCH": 3632, "BSTAR": 0, "MEAN_MOTION_DOT": 8.6e-07, "MEAN_MOTION_DDOT": 0}, "tle": {"line1": "1 41310U 16005A   25354.12508551  .00000086  00000+0  00000+0 0  9999", "line2": "2 41310   0.0617  71.3898 0004466 203.7211 227.8764  1.00272576 36327"}}, "geometry": {"type": "Point", "coordinates": [-117.80376121282653, -0.012332529625393718]}}, {"type": "Feature", "properties": {"norad_id": 41382, "name": "EUTELSAT 65 WEST A", "group": "eutelsat", "lat": -0.014158349611825839, "lon": 168.0013707022106, "alt_km": 35787.65971492937, "timestamp": "2025-12-20T09:36:01.303369+00:00", "meta": {"OBJECT_NAME": "EUTELSAT 65 WEST A", "OBJECT_ID": "2016-014A", "EPOCH": "2025-12-20T03:02:56.072832", "MEAN_MOTION": 1.00274211, "ECCENTRICITY": 0.000212, "INCLINATION": 0.0535, "RA_OF_ASC_NODE": 331.41, "ARG_OF_PERICENTER": 300.977, "MEAN_ANOMALY": 157.1048, "EPHEMERIS_TYPE": 0, "CLASSIFICATION_TYPE": "U", "NORAD_CAT_ID": 41382, "ELEMENT_SET_NO": 999, "REV_AT_EPOCH": 3574, "BSTAR": 0, "MEAN_MOTION_DOT": -2.52e-06, "MEAN_MOTION_DDOT": 0}, "tle": {"line1": "1 41382U 16014A   25354.12703788 -.00000252  00000+0  00000+0 0  9993", "line2": "2 41382   0.0535 331.4100 0002120 300.9770 157.1048  1.00274211 35749"}}, "geometry": {"type": "Point", "coordinates": [168.0013707022106, -0.014158349611825839]}}, {"type": "Feature", "properties": {"norad_id": 41589, "name": "EUTELSAT 117 WEST B", "group": "eutelsat", "lat": -0.008816872432068709, "lon": 116.24725375675082, "alt_km": 35787.50247956313, "timestamp": "2025-12-20T09:36:01.303382+00:00", "meta": {"OBJECT_NAME": "EUTELSAT 117 WEST B", "OBJECT_ID": "2016-038B", "EPOCH": "2025-12-19T12:07:15.989088", "MEAN_MOTION": 1.00271292, "ECCENTRICITY": 3.33e-05, "INCLINATION": 0.0139, "RA_OF_ASC_NODE": 154.0822, "ARG_OF_PERICENTER": 162.5919, "MEAN_ANOMALY": 196.5118, "EPHEMERIS_TYPE": 0, "CLASSIFICATION_TYPE": "U", "NORAD_CAT_ID": 41589, "ELEMENT_SET_NO": 999, "REV_AT_EPOCH": 3486, "BSTAR": 0, "MEAN_MOTION_DOT": 1.3e-07, "MEAN_MOTION_DDOT": 0}, "tle": {"line1": "1 41589U 16038B   25353.50504617  .00000013  00000+0  00000+0 0  9993", "line2": "2 41589   0.0139 154.0822 0000333 162.5919 196.5118  1.00271292 34862"}}, "geometry": {"type": "Point", "coordinates": [116.24725375675082, -0.008816872432068709]}}]}